{"type": "FeatureCollection", "features": [ {"type": "Feature", "properties": {"norad_id": 32343, "name": "FENGYUN 1C DEB", "group": "fengyun-1c-debris", "lat": 2.185774483610492, "lon": -21.139109261123455, "alt_km": 861.7156446228182, "timestamp": "2025-12-18T13:51:49.970131+00:00", "meta": {"OBJECT_NAME": "FENGYUN 1C DEB", "OBJECT_ID": "1999-025CYL", "EPOCH": "2025-12-13T05:18:56.833632", "MEAN_MOTION": 14.19848796, "ECCENTRICITY": 0.01521973, "INCLINATION": 98.6084, "RA_OF_ASC_NODE": 333.9812, "ARG_OF_PERICENTER": 126.2805, "MEAN_ANOMALY": 235.2541, "EPHEMERIS_TYPE": 0, "CLASSIFICATION_TYPE": "U", "NORAD_CAT_ID": 32343, "ELEMENT_SET_NO": 999, "REV_AT_EPOCH": 64720, "BSTAR": 0.00041342117, "MEAN_MOTION_DOT": 9.43e-06, "MEAN_MOTION_DDOT": 0}, "tle": {"line1": "1 32343U 99025CYL 25347.22149113  .00000943  00000+0  41342-3 0  9996", "line2": "2 32343  98.6084 333.9812 0152197 126.2805 235.2541 14.19848796647208"}}, "geometry": {"type": "Point", "coordinates": [-21.139109261123455, 2.185774483610492]}}, {"type": "Feature", "properties": {"norad_id": 32350, "name": "FENGYUN 1C DEB", "group": "fengyun-1c-debris", "lat": -63.7802477693533, "lon": -159.8702989307634, "alt_km": 568.9671428863794, "timestamp": "2025-12-18T13:51:49.970142+00:00", "meta": {"OBJECT_NAME": "FENGYUN 1C DEB", "OBJECT_ID": "1999-025CYT", "EPOCH": "2025-12-14T09:31:41.023776", "MEAN_MOTION": 14.52585967, "ECCENTRICITY": 0.02665518, "INCLINATION": 98.2297, "RA_OF_ASC_NODE": 33.1134, "ARG_OF_PERICENTER": 293.5046, "MEAN_ANOMALY": 63.8346, "EPHEMERIS_TYPE": 0, "CLASSIFICATION_TYPE": "U", "NORAD_CAT_ID": 32350, "ELEMENT_SET_NO": 999, "REV_AT_EPOCH": 97551, "BSTAR": 0.00074129025, "MEAN_MOTION_DOT": 4.788e-05, "MEAN_MOTION_DDOT": 0}, "tle": {"line1": "1 32350U 99025CYT 25348.39700259  .00004788  00000+0  74129-3 0  9997", "line2": "2 32350  98.2297  33.1134 0266551 293.5046  63.8346 14.52585967975510"}}, "geometry": {"type": "Point", "coordinates": [-159.8702989307634, -63.7802477693533]}}, {"type": "Feature", "properties": {"norad_id": 32352, "name": "FENGYUN 1C DEB", "group": "fengyun-1c-debris", "lat": 64.88731941489395, "lon": 111.99345060892325, "alt_km": 679.9267618145768, "timestamp": "2025-12-18T13:51:49.970152+00:00", "meta": {"OBJECT_NAME": "FENGYUN 1C DEB", "OBJECT_ID": "1999-025CYV", "EPOCH": "2025-12-17T12:20:51.905760", "MEAN_MOTION": 14.41428059, "ECCENTRICITY": 0.01224256, "INCLINATION": 98.7777, "RA_OF_ASC_NODE": 271.6536, "ARG_OF_PERICENTER": 156.5775, "MEAN_ANOMALY": 204.1056, "EPHEMERIS_TYPE": 0, "CLASSIFICATION_TYPE": "U", "NORAD_CAT_ID": 32352, "ELEMENT_SET_NO": 999, "REV_AT_EPOCH": 65338, "BSTAR": 0.00017619786, "MEAN_MOTION_DOT": 5.74e-06, "MEAN_MOTION_DDOT": 0}, "tle": {"line1": "1 32352U 99025CYV 25351.51448965  .00000574  00000+0  17620-3 0  9992", "line2": "2 32352  98.7777 271.6536 0122425 156.5775 204.1056 14.41428059653385"}}, "geometry": {"type": "Point", "coordinates": [111.99345060892325, 64.88731941489395]}}, {"type": "Feature", "properties": {"norad_id": 32353, "name": "FENGYUN 1C DEB", "group": "fengyun-1c-debris", "lat": -37.30337967886184, "lon": -17.927632474479246, "alt_km": 811.7888367840342, "timestamp": "2025-12-18T13:51:49.970162+00:00", "meta": {"OBJECT_NAME": "FENGYUN 1C DEB", "OBJECT_ID": "1999-025CYW", "EPOCH": "2025-12-14T18:10:27.215616", "MEAN_MOTION": 14.03836024, "ECCENTRICITY": 0.01250888, "INCLINATION": 98.9217, "RA_OF_ASC_NODE": 165.1959, "ARG_OF_PERICENTER": 193.6238, "MEAN_ANOMALY": 166.1542, "EPHEMERIS_TYPE": 0, "CLASSIFICATION_TYPE": "U", "NORAD_CAT_ID": 32353, "ELEMENT_SET_NO": 999, "REV_AT_EPOCH": 63222, "BSTAR": 0.0024513199, "MEAN_MOTION_DOT": 4.1e-05, "MEAN_MOTION_DDOT": 0}, "tle": {"line1": "1 32353U 99025CYW 25348.75725944  .00004100  00000+0  24513-2 0  9997", "line2": "2 32353  98.9217 165.1959 0125088 193.6238 166.1542 14.03836024632227"}}, "geometry": {"type": "Point", "coordinates": [-17.927632474479246, -37.30337967886184]}}, {"type": "Feature", "properties": {"norad_id": 32355, "name": "FENGYUN 1C DEB", "group": "fengyun-1c-debris", "lat": -79.24493632207445, "lon": 29.5862799083532, "alt_km": 459.94873804269264, "timestamp": "2025-12-18T13:51:49.970172+00:00", "meta": {"OBJECT_NAME": "FENGYUN 1C DEB", "OBJECT_ID": "1999-025CYY", "EPOCH": "2025-12-15T13:52:23.647008", "MEAN_MOTION": 15.41566908, "ECCENTRICITY": 0.00300422, "INCLINATION": 100.3422, "RA_OF_ASC_NODE": 279.3759, "ARG_OF_PERICENTER": 75.3409, "MEAN_ANOMALY": 101.6774, "EPHEMERIS_TYPE": 0, "CLASSIFICATION_TYPE": "U", "NORAD_CAT_ID": 32355, "ELEMENT_SET_NO": 999, "REV_AT_EPOCH": 65034, "BSTAR": 0.009370241, "MEAN_MOTION_DOT": 0.00421206, "MEAN_MOTION_DDOT": 0}, "tle": {"line1": "1 32355U 99025CYY 25349.57805147  .00421206  00000+0  93702-2 0  9990", "line2": "2 32355 100.3422 279.3759 0030042  75.3409 101.6774 15.41566908650340"}}, "geometry": {"type": "Point", "coordinates": [29.5862799083532, -79.24493632207445]}}, {"type": "Feature", "properties": {"norad_id": 32356, "name": "FENGYUN 1C DEB", "group": "fengyun-1c-debris", "lat": 42.47393021561883, "lon": -154.74311593614044, "alt_km": 810.2660654855908, "timestamp": "2025-12-18T13:51:49.970183+00:00", "meta": {"OBJECT_NAME": "FENGYUN 1C DEB", "OBJECT_ID": "1999-025CYZ", "EPOCH": "2025-12-17T08:34:31.108800", "MEAN_MOTION": 14.03413325, "ECCENTRICITY": 0.01256691, "INCLINATION": 102.4958, "RA_OF_ASC_NODE": 215.3001, "ARG_OF_PERICENTER": 4.5156, "MEAN_ANOMALY": 355.7101, "EPHEMERIS_TYPE": 0, "CLASSIFICATION_TYPE": "U", "NORAD_CAT_ID": 32356, "ELEMENT_SET_NO": 999, "REV_AT_EPOCH": 68452, "BSTAR": 0.0018864973, "MEAN_MOTION_DOT": 3.093e-05, "MEAN_MOTION_DDOT": 0}, "tle": {"line1": "1 32356U 99025CYZ 25351.35730450  .00003093  00000+0  18865-2 0  9991", "line2": "2 32356 102.4958 215.3001 0125669   4.5156 355.7101 14.03413325684525"}}, "geometry": {"type": "Point", "coordinates": [-154.74311593614044, 42.47393021561883]}}, {"type": "Feature", "properties": {"norad_id": 32357, "name": "FENGYUN 1C DEB", "group": "fengyun-1c-debris", "lat": -50.77941484991831, "lon": -159.54742931023344, "alt_km": 813.8052806577016, "timestamp": "2025-12-18T13:51:49.970193+00:00", "meta": {"OBJECT_NAME": "FENGYUN 1C DEB", "OBJECT_ID": "1999-025CZA", "EPOCH": "2025-12-13T21:20:47.666112", "MEAN_MOTION": 13.68708108, "ECCENTRICITY": 0.04907347, "INCLINATION": 98.8577, "RA_OF_ASC_NODE": 27.1403, "ARG_OF_PERICENTER": 184.5127, "MEAN_ANOMALY": 353.61, "EPHEMERIS_TYPE": 0, "CLASSIFICATION_TYPE": "U", "NORAD_CAT_ID": 32357, "ELEMENT_SET_NO": 999, "REV_AT_EPOCH": 66803, "BSTAR": 0.0036548407, "MEAN_MOTION_DOT": 7.308e-05, "MEAN_MOTION_DDOT": 0}, "tle": {"line1": "1 32357U 99025CZA 25347.88944058  .00007308  00000+0  36548-2 0  9997", "line2": "2 32357  98.8577  27.1403 0490734 184.5127 353.6100 13.68708108668031"}}, "geometry": {"type": "Point", "coordinates": [-159.54742931023344, -50.77941484991831]}}, {"type": "Feature", "properties": {"norad_id": 32360, "name": "FENGYUN 1C DEB", "group": "fengyun-1c-debris", "lat": 34.03012911393691, "lon": 163.63188183125263, "alt_km": 931.7476443466248, "timestamp": "2025-12-18T13:51:49.970203+00:00", "meta": {"OBJECT_NAME": "FENGYUN 1C DEB", "OBJECT_ID": "1999-025CZD", "EPOCH": "2025-12-18T05:06:51.185952", "MEAN_MOTION": 13.98351056, "ECCENTRICITY": 0.02332442, "INCLINATION": 98.1017, "RA_OF_ASC_NODE": 168.829, "ARG_OF_PERICENTER": 292.5211, "MEAN_ANOMALY": 65.1418, "EPHEMERIS_TYPE": 0, "CLASSIFICATION_TYPE": "U", "NORAD_CAT_ID": 32360, "ELEMENT_SET_NO": 999, "REV_AT_EPOCH": 64893, "BSTAR": 0.0024572046, "MEAN_MOTION_DOT": 4.391e-05, "MEAN_MOTION_DDOT": 0}, "tle": {"line1": "1 32360U 99025CZD 25352.21309243  .00004391  00000+0  24572-2 0  9998", "line2": "2 32360  98.1017 168.8290 0233244 292.5211  65.1418 13.98351056648932"}}, "geometry": {"type": "Point", "coordinates": [163.63188183125263, 34.03012911393691]}}, {"type": "Feature", "properties": {"norad_id": 32361, "name": "FENGYUN 1C DEB", "group": "fengyun-1c-debris", "lat": 66.6538852017541, "lon": 30.64657707932628, "alt_km": 691.1726421708709, "timestamp": "2025-12-18T13:51:49.970213+00:00", "meta": {"OBJECT_NAME": "FENGYUN 1C DEB", "OBJECT_ID": "1999-025CZE", "EPOCH": "2025-12-17T02:48:04.154400", "MEAN_MOTION": 14.51109663, "ECCENTRICITY": 0.00456706, "INCLINATION": 98.8528, "RA_OF_ASC_NODE": 50.2768, "ARG_OF_PERICENTER": 31.0407, "MEAN_ANOMALY": 329.347, "EPHEMERIS_TYPE": 0, "CLASSIFICATION_TYPE": "U", "NORAD_CAT_ID": 32361, "ELEMENT_SET_NO": 999, "REV_AT_EPOCH": 96408, "BSTAR": 0.0014854328, "MEAN_MOTION_DOT": 5.922e-05, "MEAN_MOTION_DDOT": 0}, "tle": {"line1": "1 32361U 99025CZE 25351.11671475  .00005922  00000+0  14854-2 0  9999", "line2": "2 32361  98.8528  50.2768 0045670  31.0407 329.3470 14.51109663964083"}}, "geometry": {"type": "Point", "coordinates": [30.64657707932628, 66.6538852017541]}}, {"type": "Feature", "properties": {"norad_id": 32362, "name": "FENGYUN 1C DEB", "group": "fengyun-1c-debris", "lat": 75.74190453404857, "lon": -79.24937087855385, "alt_km": 1208.285166672782, "timestamp": "2025-12-18T13:51:49.970224+00:00", "meta": {"OBJECT_NAME": "FENGYUN 1C DEB", "OBJECT_ID": "1999-025CZF", "EPOCH": "2025-12-18T04:40:06.801024", "MEAN_MOTION": 13.65219886, "ECCENTRICITY": 0.0273927, "INCLINATION": 99.8437, "RA_OF_ASC_NODE": 323.4581, "ARG_OF_PERICENTER": 271.5101, "MEAN_ANOMALY": 85.4683, "EPHEMERIS_TYPE": 0, "CLASSIFICATION_TYPE": "U", "NORAD_CAT_ID": 32362, "ELEMENT_SET_NO": 999, "REV_AT_EPOCH": 91204, "BSTAR": 0.0021594975, "MEAN_MOTION_DOT": 2.217e-05, "MEAN_MOTION_DDOT": 0}, "tle": {"line1": "1 32362U 99025CZF 25352.19452316  .00002217  00000+0  21595-2 0  9994", "line2": "2 32362  99.8437 323.4581 0273927 271.5101  85.4683 13.65219886912040"}}, "geometry": {"type": "Point", "coordinates": [-79.24937087855385, 75.74190453404857]}}]}